[{"OBJECT_NAME":"STARLINK-35659","OBJECT_ID":"2025-257F","EPOCH":"2026-03-09T16:13:10.363296","MEAN_MOTION":15.30231809,"ECCENTRICITY":0.00012946,"INCLINATION":53.1599,"RA_OF_ASC_NODE":216.9291,"ARG_OF_PERICENTER":81.9957,"MEAN_ANOMALY":278.1191,"EPHEMERIS_TYPE":0,"CLASSIFICATION_TYPE":"U","NORAD_CAT_ID":66385,"ELEMENT_SET_NO":999,"REV_AT_EPOCH":1973,"BSTAR":0.00063513382,"MEAN_MOTION_DOT":0.00018517,"MEAN_MOTION_DDOT":0},{"OBJECT_NAME":"KUIPER-00175","OBJECT_ID":"2025-301C","EPOCH":"2026-03-09T23:30:37.840032","MEAN_MOTION":15.30996371,"ECCENTRICITY":0.00022792,"INCLINATION":51.8781,"RA_OF_ASC_NODE":63.6978,"ARG_OF_PERICENTER":50.5695,"MEAN_ANOMALY":309.549,"EPHEMERIS_TYPE":0,"CLASSIFICATION_TYPE":"U","NORAD_CAT_ID":67135,"ELEMENT_SET_NO":999,"REV_AT_EPOCH":1385,"BSTAR":0.00066732304,"MEAN_MOTION_DOT":0.00019968,"MEAN_MOTION_DDOT":0}]
