STARLINK-35659          
1 66385U 25257F   26068.67581439  .00018517  00000+0  63513-3 0  9996
2 66385  53.1599 216.9291 0001294  81.9957 278.1191 15.30231809 19738
KUIPER-00175            
1 67135U 25301C   26068.97960463  .00019968  00000+0  66732-3 0  9998
2 67135  51.8781  63.6978 0002279  50.5695 309.5490 15.30996371 13854
